[
    {
        "Altitude(m)": 569314.5588514725,
        "Argument of Periapsis(deg)": 0.0,
        "Eccentricity": 0.0,
        "Inclination(deg)": 53.0,
        "Latitude(deg)": -46.773302806765614,
        "Longitude(deg)": -152.09409972763865,
        "Mean Anomaly(deg)": 245.4545,
        "RAAN(deg)": 75.0,
        "Satellite Name": "Starlink Shell 1 345",
        "Satellite Number": 345,
        "Semi-Major Axis(m)": 6931778.249405717,
        "Time(s)": 0
    },
    {
        "Altitude(m)": 569436.0568401683,
        "Argument of Periapsis(deg)": 0.00034857847951123687,
        "Eccentricity": 0.0,
        "Inclination(deg)": 53.0,
        "Latitude(deg)": -47.07211840275816,
        "Longitude(deg)": -151.33350014586168,
        "Mean Anomaly(deg)": 246.0813312035567,
        "RAAN(deg)": 74.99948122992252,
        "Satellite Name": "Starlink Shell 1 345",
        "Satellite Number": 345,
        "Semi-Major Axis(m)": 6931778.249405717,
        "Time(s)": 10
    },
    {
        "Altitude(m)": 569555.0320035643,
        "Argument of Periapsis(deg)": 0.0006971569590224737,
        "Eccentricity": 0.0,
        "Inclination(deg)": 53.0,
        "Latitude(deg)": -47.36523894270281,
        "Longitude(deg)": -150.56399289496468,
        "Mean Anomaly(deg)": 246.7081624071134,
        "RAAN(deg)": 74.99896245984506,
        "Satellite Name": "Starlink Shell 1 345",
        "Satellite Number": 345,
        "Semi-Major Axis(m)": 6931778.249405717,
        "Time(s)": 20
    },
    {
        "Altitude(m)": 569671.4372414344,
        "Argument of Periapsis(deg)": 0.0010457354385337105,
        "Eccentricity": 0.0,
        "Inclination(deg)": 53.0,
        "Latitude(deg)": -47.65254389666891,
        "Longitude(deg)": -149.78556314465965,
        "Mean Anomaly(deg)": 247.33499361067013,
        "RAAN(deg)": 74.99844368976758,
        "Satellite Name": "Starlink Shell 1 345",
        "Satellite Number": 345,
        "Semi-Major Axis(m)": 6931778.249405717,
        "Time(s)": 30
    },
    {
        "Altitude(m)": 569785.2264468893,
        "Argument of Periapsis(deg)": 0.0013943139180449475,
        "Eccentricity": 0.0,
        "Inclination(deg)": 53.0,
        "Latitude(deg)": -47.93391191730044,
        "Longitude(deg)": -148.99820556349817,
        "Mean Anomaly(deg)": 247.96182481422687,
        "RAAN(deg)": 74.9979249196901,
        "Satellite Name": "Starlink Shell 1 345",
        "Satellite Number": 345,
        "Semi-Major Axis(m)": 6931778.249405717,
        "Time(s)": 40
    },
    {
        "Altitude(m)": 569896.354526549,
        "Argument of Periapsis(deg)": 0.0017428923975561844,
        "Eccentricity": 0.0,
        "Inclination(deg)": 53.0,
        "Latitude(deg)": -48.209220979471645,
        "Longitude(deg)": -148.20192587623478,
        "Mean Anomaly(deg)": 248.58865601778353,
        "RAAN(deg)": 74.99740614961264,
        "Satellite Name": "Starlink Shell 1 345",
        "Satellite Number": 345,
        "Semi-Major Axis(m)": 6931778.249405717,
        "Time(s)": 50
    },
    {
        "Altitude(m)": 570004.7774202343,
        "Argument of Periapsis(deg)": 0.002091470877067421,
        "Eccentricity": 0.0,
        "Inclination(deg)": 53.0,
        "Latitude(deg)": -48.47834853077793,
        "Longitude(deg)": -147.39674090615105,
        "Mean Anomaly(deg)": 249.21548722134028,
        "RAAN(deg)": 74.99688737953517,
        "Satellite Name": "Starlink Shell 1 345",
        "Satellite Number": 345,
        "Semi-Major Axis(m)": 6931778.249405717,
        "Time(s)": 60
    },
    {
        "Altitude(m)": 570110.452120238,
        "Argument of Periapsis(deg)": 0.0024400493565786582,
        "Eccentricity": 0.0,
        "Inclination(deg)": 53.0,
        "Latitude(deg)": -48.741171652978096,
        "Longitude(deg)": -146.5826786118316,
        "Mean Anomaly(deg)": 249.842318424897,
        "RAAN(deg)": 74.99636860945769,
        "Satellite Name": "Starlink Shell 1 345",
        "Satellite Number": 345,
        "Semi-Major Axis(m)": 6931778.249405717,
        "Time(s)": 70
    },
    {
        "Altitude(m)": 570213.3366900801,
        "Argument of Periapsis(deg)": 0.002788627836089895,
        "Eccentricity": 0.0,
        "Inclination(deg)": 53.0,
        "Latitude(deg)": -48.99756723444081,
        "Longitude(deg)": -145.75977962759427,
        "Mean Anomaly(deg)": 250.4691496284537,
        "RAAN(deg)": 74.99584983938023,
        "Satellite Name": "Starlink Shell 1 345",
        "Satellite Number": 345,
        "Semi-Major Axis(m)": 6931778.249405717,
        "Time(s)": 80
    },
    {
        "Altitude(m)": 570313.3902828242,
        "Argument of Periapsis(deg)": 0.0031372063156011316,
        "Eccentricity": 0.0,
        "Inclination(deg)": 53.0,
        "Latitude(deg)": -49.24741215358414,
        "Longitude(deg)": -144.9280972778816,
        "Mean Anomaly(deg)": 251.09598083201038,
        "RAAN(deg)": 74.99533106930275,
        "Satellite Name": "Starlink Shell 1 345",
        "Satellite Number": 345,
        "Semi-Major Axis(m)": 6931778.249405717,
        "Time(s)": 90
    },
    {
        "Altitude(m)": 570410.5731588908,
        "Argument of Periapsis(deg)": 0.0034857847951123688,
        "Eccentricity": 0.0,
        "Inclination(deg)": 53.0,
        "Latitude(deg)": -49.49058347320835,
        "Longitude(deg)": -144.08769757428976,
        "Mean Anomaly(deg)": 251.72281203556716,
        "RAAN(deg)": 74.99481229922527,
        "Satellite Name": "Starlink Shell 1 345",
        "Satellite Number": 345,
        "Semi-Major Axis(m)": 6931778.249405717,
        "Time(s)": 100
    },
    {
        "Altitude(m)": 570504.8467033788,
        "Argument of Periapsis(deg)": 0.003834363274623606,
        "Eccentricity": 0.0,
        "Inclination(deg)": 53.0,
        "Latitude(deg)": -49.72695864553943,
        "Longitude(deg)": -143.2386607036697,
        "Mean Anomaly(deg)": 252.34964323912385,
        "RAAN(deg)": 74.99429352914781,
        "Satellite Name": "Starlink Shell 1 345",
        "Satellite Number": 345,
        "Semi-Major Axis(m)": 6931778.249405717,
        "Time(s)": 110
    },
    {
        "Altitude(m)": 570596.1734428812,
        "Argument of Periapsis(deg)": 0.004182941754134842,
        "Eccentricity": 0.0,
        "Inclination(deg)": 53.0,
        "Latitude(deg)": -49.95641572771299,
        "Longitude(deg)": -142.3810809769007,
        "Mean Anomaly(deg)": 252.97647444268057,
        "RAAN(deg)": 74.99377475907033,
        "Satellite Name": "Starlink Shell 1 345",
        "Satellite Number": 345,
        "Semi-Major Axis(m)": 6931778.249405717,
        "Time(s)": 120
    },
    {
        "Altitude(m)": 570684.5170618246,
        "Argument of Periapsis(deg)": 0.004531520233646079,
        "Eccentricity": 0.0,
        "Inclination(deg)": 53.0,
        "Latitude(deg)": -50.17883360732318,
        "Longitude(deg)": -141.51506674638858,
        "Mean Anomaly(deg)": 253.6033056462373,
        "RAAN(deg)": 74.99325598899286,
        "Satellite Name": "Starlink Shell 1 345",
        "Satellite Number": 345,
        "Semi-Major Axis(m)": 6931778.249405717,
        "Time(s)": 130
    },
    {
        "Altitude(m)": 570769.8424182576,
        "Argument of Periapsis(deg)": 0.0048800987131573164,
        "Eccentricity": 0.0,
        "Inclination(deg)": 53.0,
        "Latitude(deg)": -50.394092237557686,
        "Longitude(deg)": -140.64074180019176,
        "Mean Anomaly(deg)": 254.23013684979398,
        "RAAN(deg)": 74.9927372189154,
        "Satellite Name": "Starlink Shell 1 345",
        "Satellite Number": 345,
        "Semi-Major Axis(m)": 6931778.249405717,
        "Time(s)": 140
    },
    {
        "Altitude(m)": 570852.1155591597,
        "Argument of Periapsis(deg)": 0.005228677192668553,
        "Eccentricity": 0.0,
        "Inclination(deg)": 53.0,
        "Latitude(deg)": -50.6020728813375,
        "Longitude(deg)": -139.75824520197187,
        "Mean Anomaly(deg)": 254.8569680533507,
        "RAAN(deg)": 74.9922184488379,
        "Satellite Name": "Starlink Shell 1 345",
        "Satellite Number": 345,
        "Semi-Major Axis(m)": 6931778.249405717,
        "Time(s)": 150
    },
    {
        "Altitude(m)": 570931.3037351901,
        "Argument of Periapsis(deg)": 0.00557725567217979,
        "Eccentricity": 0.0,
        "Inclination(deg)": 53.0,
        "Latitude(deg)": -50.80265836376007,
        "Longitude(deg)": -138.8677310845447,
        "Mean Anomaly(deg)": 255.4837992569074,
        "RAAN(deg)": 74.99169967876044,
        "Satellite Name": "Starlink Shell 1 345",
        "Satellite Number": 345,
        "Semi-Major Axis(m)": 6931778.249405717,
        "Time(s)": 160
    },
    {
        "Altitude(m)": 571007.3754149362,
        "Argument of Periapsis(deg)": 0.0059258341516910265,
        "Eccentricity": 0.0,
        "Inclination(deg)": 53.0,
        "Latitude(deg)": -50.99573333203146,
        "Longitude(deg)": -137.96936990482376,
        "Mean Anomaly(deg)": 256.1106304604641,
        "RAAN(deg)": 74.99118090868296,
        "Satellite Name": "Starlink Shell 1 345",
        "Satellite Number": 345,
        "Semi-Major Axis(m)": 6931778.249405717,
        "Time(s)": 170
    },
    {
        "Altitude(m)": 571080.3002986086,
        "Argument of Periapsis(deg)": 0.006274412631202263,
        "Eccentricity": 0.0,
        "Inclination(deg)": 53.0,
        "Latitude(deg)": -51.18118452196172,
        "Longitude(deg)": -137.063348129414,
        "Mean Anomaly(deg)": 256.7374616640208,
        "RAAN(deg)": 74.99066213860549,
        "Satellite Name": "Starlink Shell 1 345",
        "Satellite Number": 345,
        "Semi-Major Axis(m)": 6931778.249405717,
        "Time(s)": 180
    }
]